[{"OBJECT_NAME":"STARLINK-2487","OBJECT_ID":"2021-027BE","EPOCH":"2026-03-10T00:00:02.999808","MEAN_MOTION":15.1061942,"ECCENTRICITY":0.00021427,"INCLINATION":53.0713,"RA_OF_ASC_NODE":150.193,"ARG_OF_PERICENTER":82.213,"MEAN_ANOMALY":69.5138,"EPHEMERIS_TYPE":0,"CLASSIFICATION_TYPE":"U","NORAD_CAT_ID":48144,"ELEMENT_SET_NO":999,"REV_AT_EPOCH":574,"BSTAR":0.083657273,"MEAN_MOTION_DOT":0.01515342,"MEAN_MOTION_DDOT":0},{"OBJECT_NAME":"CONNECTA IOT-3","OBJECT_ID":"2024-149H","EPOCH":"2026-03-09T18:54:25.092288","MEAN_MOTION":15.22958192,"ECCENTRICITY":0.00016542,"INCLINATION":97.3789,"RA_OF_ASC_NODE":146.5718,"ARG_OF_PERICENTER":234.1759,"MEAN_ANOMALY":125.9324,"EPHEMERIS_TYPE":0,"CLASSIFICATION_TYPE":"U","NORAD_CAT_ID":60475,"ELEMENT_SET_NO":999,"REV_AT_EPOCH":8667,"BSTAR":0.0002486185,"MEAN_MOTION_DOT":5.77e-5,"MEAN_MOTION_DDOT":0}]
